NORAD_CAT_ID,OBJECT_NAME,OBJECT_TYPE,EPOCH,MEAN_MOTION,ECCENTRICITY,INCLINATION,RA_OF_ASC_NODE,ARG_OF_PERICENTER,MEAN_ANOMALY,BSTAR,MEAN_MOTION_DOT,MEAN_MOTION_DDOT,TLE_LINE0,TLE_LINE1,TLE_LINE2,SEMIMAJOR_AXIS,PERIOD,APOGEE,PERIGEE,DECAYED
52368.0,STARLINK-3834,PAYLOAD,2023-03-30 02:10:55,15.08879035,0.0001229,53.2159,337.6739,99.5389,260.5742,0.00194,0.00030755,0.0,0 STARLINK-3834,1 52368U 22045AP  23089.09091697  .00030755  00000-0  19400-2 0  9996,2 52368  53.2159 337.6739 0001229  99.5389 260.5742 15.08879035 53534,6917.761,95.435,540.476,538.776,0.0
52368.0,STARLINK-3834,PAYLOAD,2023-03-30 10:07:51,15.08841637,0.0002363,53.2166,336.1891,76.6131,283.5125,0.0011625,0.00018263,0.0,0 STARLINK-3834,1 52368U 22045AP  23089.42212621  .00018263  00000-0  11625-2 0  9996,2 52368  53.2166 336.1891 0002363  76.6131 283.5125 15.08841637 53588,6917.875,95.437,541.375,538.106,0.0
52368.0,STARLINK-3834,PAYLOAD,2023-03-31 02:01:43,15.08838224,0.0001512,53.2173,333.2119,109.062,251.0536,0.00054716,8.43e-05,0.0,0 STARLINK-3834,1 52368U 22045AP  23090.08452573  .00008430  00000-0  54716-3 0  9996,2 52368  53.2173 333.2119 0001512 109.0620 251.0536 15.08838224 53681,6917.886,95.438,540.797,538.705,0.0
52368.0,STARLINK-3834,PAYLOAD,2023-03-31 21:06:21,15.08833803,0.0001347,53.2166,329.6426,98.0016,262.1129,0.00031983,4.805e-05,0.0,0 STARLINK-3834,1 52368U 22045AP  23090.87941240  .00004805  00000-0  31983-3 0  9990,2 52368  53.2166 329.6426 0001347  98.0016 262.1129 15.08833803 53808,6917.899,95.438,540.696,538.832,0.0
52368.0,STARLINK-3834,PAYLOAD,2023-04-01 00:17:07,15.08842188,0.0001181,53.2165,329.0522,97.4015,262.7112,0.00063021,9.757e-05,0.0,0 STARLINK-3834,1 52368U 22045AP  23091.01189185  .00009757  00000-0  63021-3 0  9998,2 52368  53.2165 329.0522 0001181  97.4015 262.7112 15.08842188 53822,6917.874,95.437,540.556,538.922,0.0
52368.0,STARLINK-3834,PAYLOAD,2023-04-01 19:21:45,15.08836983,0.000122,53.2168,325.4868,99.49,260.623,0.00017728,2.534e-05,0.0,0 STARLINK-3834,1 52368U 22045AP  23091.80677546  .00002534  00000-0  17728-3 0  9997,2 52368  53.2168 325.4868 0001220  99.4900 260.6230 15.08836983 53944,6917.89,95.438,540.599,538.911,0.0
52368.0,STARLINK-3834,PAYLOAD,2023-04-01 20:57:08,15.08840805,0.0001272,53.217,325.1881,91.0855,269.0283,0.00027109,4.029e-05,0.0,0 STARLINK-3834,1 52368U 22045AP  23091.87301443  .00004029  00000-0  27109-3 0  9999,2 52368  53.2170 325.1881 0001272  91.0855 269.0283 15.08840805 53953,6917.878,95.438,540.623,538.863,0.0
52368.0,STARLINK-3834,PAYLOAD,2023-04-02 14:26:22,15.08846509,0.0001233,53.2164,321.9155,102.102,258.011,0.00027622,4.112e-05,0.0,0 STARLINK-3834,1 52368U 22045AP  23092.60165207  .00004112  00000-0  27622-3 0  9990,2 52368  53.2164 321.9155 0001233 102.1020 258.0110 15.08846509 54066,6917.86,95.437,540.578,538.873,0.0
52368.0,STARLINK-3834,PAYLOAD,2023-04-02 22:23:18,15.08842994,0.0001088,53.2158,320.4271,90.6301,269.4815,0.00011102,1.48e-05,0.0,0 STARLINK-3834,1 52368U 22045AP  23092.93285187  .00001480  00000-0  11102-3 0  9997,2 52368  53.2158 320.4271 0001088  90.6301 269.4815 15.08842994 54111,6917.871,95.437,540.489,538.984,0.0
52368.0,STARLINK-3834,PAYLOAD,2023-04-03 01:34:04,15.0884222,0.0001134,53.2158,319.8322,93.756,266.3562,0.00022931,3.364e-05,0.0,0 STARLINK-3834,1 52368U 22045AP  23093.06533359  .00003364  00000-0  22931-3 0  9994,2 52368  53.2158 319.8322 0001134  93.7560 266.3562 15.08842220 54132,6917.874,95.437,540.523,538.954,0.0
52368.0,STARLINK-3834,PAYLOAD,2023-04-03 23:49:28,15.0886014,0.000101,53.2157,315.6688,98.4194,261.6913,0.00036013,5.451e-05,0.0,0 STARLINK-3834,1 52368U 22045AP  23093.99268567  .00005451  00000-0  36013-3 0  9997,2 52368  53.2157 315.6688 0001010  98.4194 261.6913 15.08860140 54272,6917.819,95.436,540.383,538.985,0.0
52368.0,STARLINK-3834,PAYLOAD,2023-04-04 22:04:52,15.08846195,0.0001089,53.2155,311.5054,90.8747,269.237,0.00011889,1.605e-05,0.0,0 STARLINK-3834,1 52368U 22045AP  23094.92004923  .00001605  00000-0  11889-3 0  9996,2 52368  53.2155 311.5054 0001089  90.8747 269.2370 15.08846195 54419,6917.861,95.437,540.48,538.973,0.0
52368.0,STARLINK-3834,PAYLOAD,2023-04-04 23:40:15,15.08846697,0.000108,53.2157,311.2081,94.2435,265.868,0.0001202,1.626e-05,0.0,0 STARLINK-3834,1 52368U 22045AP  23094.98628857  .00001626  00000-0  12020-3 0  9991,2 52368  53.2157 311.2081 0001080  94.2435 265.8680 15.08846697 54425,6917.86,95.437,540.472,538.978,0.0
52368.0,STARLINK-3834,PAYLOAD,2023-04-05 20:20:16,15.08833031,0.0001042,53.2154,307.3427,106.7153,253.3953,0.0001337,1.84e-05,0.0,0 STARLINK-3834,1 52368U 22045AP  23095.84741551  .00001840  00000-0  13370-3 0  9991,2 52368  53.2154 307.3427 0001042 106.7153 253.3953 15.08833031 54553,6917.902,95.438,540.488,539.046,0.0
52368.0,STARLINK-3834,PAYLOAD,2023-04-05 23:31:03,15.08833838,0.0001095,53.215,306.7482,97.5009,262.6108,0.00014607,2.037e-05,0.0,0 STARLINK-3834,1 52368U 22045AP  23095.97989593  .00002037  00000-0  14607-3 0  9998,2 52368  53.2150 306.7482 0001095  97.5009 262.6108 15.08833838 54570,6917.899,95.438,540.522,539.007,0.0
52368.0,STARLINK-3834,PAYLOAD,2023-04-06 17:00:17,15.08839776,0.0001142,53.216,303.4764,96.7063,263.406,0.00013159,1.807e-05,0.0,0 STARLINK-3834,1 52368U 22045AP  23096.70853106  .00001807  00000-0  13159-3 0  9995,2 52368  53.2160 303.4764 0001142  96.7063 263.4060 15.08839776 54687,6917.881,95.438,540.536,538.956,0.0
52368.0,STARLINK-3834,PAYLOAD,2023-04-07 13:40:17,15.08838079,0.0001665,53.2122,299.6106,87.2334,272.8848,0.00019565,2.827e-05,0.0,0 STARLINK-3834,1 52368U 22045AP  23097.56965234  .00002827  00000-0  19565-3 0  9996,2 52368  53.2122 299.6106 0001665  87.2334 272.8848 15.08838079 54815,6917.886,95.438,540.903,538.599,0.0
52368.0,STARLINK-3834,PAYLOAD,2023-04-07 20:01:50,15.08842739,0.0001738,53.212,298.421,86.1314,273.9877,0.0001373,1.898e-05,0.0,0 STARLINK-3834,1 52368U 22045AP  23097.83461145  .00001898  00000-0  13730-3 0  9993,2 52368  53.2120 298.4210 0001738  86.1314 273.9877 15.08842739 54859,6917.872,95.437,540.939,538.535,0.0
52368.0,STARLINK-3834,PAYLOAD,2023-04-08 13:31:05,15.08853525,0.0001526,53.2135,295.151,81.8995,278.217,-0.00021994,-3.788e-05,0.0,0 STARLINK-3834,1 52368U 22045AP  23098.56325727 -.00003788  00000-0 -21994-3 0  9992,2 52368  53.2135 295.1510 0001526  81.8995 278.2170 15.08853525 54965,6917.839,95.437,540.76,538.648,0.0
52368.0,STARLINK-3834,PAYLOAD,2023-04-09 05:24:57,15.08834449,0.0001427,53.2149,292.1763,82.6847,277.4307,6.305e-05,7.15e-06,0.0,0 STARLINK-3834,1 52368U 22045AP  23099.22566036  .00000715  00000-0  63050-4 0  9991,2 52368  53.2149 292.1763 0001427  82.6847 277.4307 15.08834449 55061,6917.897,95.438,540.75,538.775,0.0
52368.0,STARLINK-3834,PAYLOAD,2023-04-09 13:21:52,15.08833503,0.0001251,53.2138,290.6893,86.0545,274.059,5.0063e-05,5.09e-06,0.0,0 STARLINK-3834,1 52368U 22045AP  23099.55686127  .00000509  00000-0  50063-4 0  9992,2 52368  53.2138 290.6893 0001251  86.0545 274.0590 15.08833503 55117,6917.9,95.438,540.631,538.9,0.0
52368.0,STARLINK-3834,PAYLOAD,2023-04-09 19:43:25,15.08840337,0.0001213,53.2152,289.5004,87.0494,273.0637,7.8014e-05,9.54e-06,0.0,0 STARLINK-3834,1 52368U 22045AP  23099.82181719  .00000954  00000-0  78014-4 0  9999,2 52368  53.2152 289.5004 0001213  87.0494 273.0637 15.08840337 55154,6917.879,95.438,540.583,538.905,0.0
52368.0,STARLINK-3834,PAYLOAD,2023-04-10 11:37:16,15.0883798,0.0001126,53.2147,286.5263,90.0072,270.1049,0.00013697,1.893e-05,0.0,0 STARLINK-3834,1 52368U 22045AP  23100.48421943  .00001893  00000-0  13697-3 0  9998,2 52368  53.2147 286.5263 0001126  90.0072 270.1049 15.08837980 55257,6917.887,95.438,540.531,538.973,0.0
52368.0,STARLINK-3834,PAYLOAD,2023-04-10 19:34:11,15.08845704,0.0001067,53.2156,285.0397,90.1344,269.977,0.00012469,1.697e-05,0.0,0 STARLINK-3834,1 52368U 22045AP  23100.81541485  .00001697  00000-0  12469-3 0  9997,2 52368  53.2156 285.0397 0001067  90.1344 269.9770 15.08845704 55302,6917.863,95.437,540.466,538.99,0.0
52368.0,STARLINK-3834,PAYLOAD,2023-04-11 13:03:26,15.08835,0.0001036,53.2151,281.7687,89.5803,270.5307,2.8478e-05,1.65e-06,0.0,0 STARLINK-3834,1 52368U 22045AP  23101.54406007  .00000165  00000-0  28478-4 0  9995,2 52368  53.2151 281.7687 0001036  89.5803 270.5307 15.08835000 55414,6917.896,95.438,540.477,539.044,0.0
52368.0,STARLINK-3834,PAYLOAD,2023-04-12 19:15:52,15.08712458,0.0001971,53.2157,276.1196,94.769,265.3527,-0.0018308,-0.00029207,0.0,0 STARLINK-3834,1 52368U 22045AP  23102.80268653 -.00029207  00000-0 -18308-2 0  9997,2 52368  53.2157 276.1196 0001971  94.7690 265.3527 15.08712458 55601,6918.27,95.446,541.499,538.772,0.0
52368.0,STARLINK-3834,PAYLOAD,2023-04-13 11:09:38,15.08838666,0.0001113,53.215,273.1445,70.5051,289.6061,0.00017322,2.47e-05,0.0,0 STARLINK-3834,1 52368U 22045AP  23103.46502412  .00002470  00000-0  17322-3 0  9991,2 52368  53.2150 273.1445 0001113  70.5051 289.6061 15.08838666 55702,6917.884,95.438,540.519,538.98,0.0
52368.0,STARLINK-3834,PAYLOAD,2023-04-13 19:06:33,15.08850726,0.0001208,53.215,271.6577,68.4867,291.6254,0.00031926,4.798e-05,0.0,0 STARLINK-3834,1 52368U 22045AP  23103.79621850  .00004798  00000-0  31926-3 0  9996,2 52368  53.2150 271.6577 0001208  68.4867 291.6254 15.08850726 55750,6917.848,95.437,540.548,538.877,0.0
52368.0,STARLINK-3834,PAYLOAD,2023-04-14 07:49:38,15.08840043,0.0001168,53.2148,269.278,69.9309,290.1809,3.9275e-05,3.37e-06,0.0,0 STARLINK-3834,1 52368U 22045AP  23104.32614312  .00000337  00000-0  39275-4 0  9992,2 52368  53.2148 269.2780 0001168  69.9309 290.1809 15.08840043 55838,6917.88,95.438,540.553,538.937,0.0
52368.0,STARLINK-3834,PAYLOAD,2023-04-14 11:00:24,15.08842438,0.0001185,53.2148,268.6832,78.3951,281.7175,6.5014e-05,7.47e-06,0.0,0 STARLINK-3834,1 52368U 22045AP  23104.45862164  .00000747  00000-0  65014-4 0  9991,2 52368  53.2148 268.6832 0001185  78.3951 281.7175 15.08842438 55859,6917.873,95.437,540.558,538.918,0.0
